[{"OBJECT_NAME":"STARLINK-4285","OBJECT_ID":"2022-076F","EPOCH":"2026-03-09T19:20:58.272000","MEAN_MOTION":15.08837128,"ECCENTRICITY":0.0001279,"INCLINATION":53.217,"RA_OF_ASC_NODE":103.5964,"ARG_OF_PERICENTER":90.2691,"MEAN_ANOMALY":269.8448,"EPHEMERIS_TYPE":0,"CLASSIFICATION_TYPE":"U","NORAD_CAT_ID":52991,"ELEMENT_SET_NO":999,"REV_AT_EPOCH":20272,"BSTAR":4.7943329e-5,"MEAN_MOTION_DOT":4.75e-6,"MEAN_MOTION_DDOT":0},{"OBJECT_NAME":"CZ-4C DEB","OBJECT_ID":"2010-038E","EPOCH":"2026-03-08T13:52:01.201152","MEAN_MOTION":14.99820212,"ECCENTRICITY":0.00772359,"INCLINATION":97.9453,"RA_OF_ASC_NODE":199.3713,"ARG_OF_PERICENTER":309.8702,"MEAN_ANOMALY":49.5744,"EPHEMERIS_TYPE":0,"CLASSIFICATION_TYPE":"U","NORAD_CAT_ID":37569,"ELEMENT_SET_NO":999,"REV_AT_EPOCH":82446,"BSTAR":0.0019249603,"MEAN_MOTION_DOT":0.00025376,"MEAN_MOTION_DDOT":0}]
